[{"OBJECT_NAME":"STARLINK-37050","OBJECT_ID":"2026-053X","EPOCH":"2026-04-13T06:00:02.000160","MEAN_MOTION":15.56111231,"ECCENTRICITY":0.00020001,"INCLINATION":97.2851,"RA_OF_ASC_NODE":339.2608,"ARG_OF_PERICENTER":103.5641,"MEAN_ANOMALY":183.8179,"EPHEMERIS_TYPE":0,"CLASSIFICATION_TYPE":"U","NORAD_CAT_ID":68228,"ELEMENT_SET_NO":999,"REV_AT_EPOCH":555,"BSTAR":-0.030301435,"MEAN_MOTION_DOT":-0.01871036,"MEAN_MOTION_DDOT":0},{"OBJECT_NAME":"STARLINK-37081","OBJECT_ID":"2026-053Y","EPOCH":"2026-04-13T04:52:34.403808","MEAN_MOTION":15.7518526,"ECCENTRICITY":0.00025735,"INCLINATION":97.2848,"RA_OF_ASC_NODE":339.1932,"ARG_OF_PERICENTER":68.7577,"MEAN_ANOMALY":291.3963,"EPHEMERIS_TYPE":0,"CLASSIFICATION_TYPE":"U","NORAD_CAT_ID":68229,"ELEMENT_SET_NO":999,"REV_AT_EPOCH":550,"BSTAR":0.0013054557,"MEAN_MOTION_DOT":0.00199168,"MEAN_MOTION_DDOT":0},{"OBJECT_NAME":"STARLINK-37100","OBJECT_ID":"2026-053Z","EPOCH":"2026-04-13T06:00:02.000160","MEAN_MOTION":15.55264812,"ECCENTRICITY":0.00022132,"INCLINATION":97.2853,"RA_OF_ASC_NODE":339.2548,"ARG_OF_PERICENTER":98.5612,"MEAN_ANOMALY":174.9662,"EPHEMERIS_TYPE":0,"CLASSIFICATION_TYPE":"U","NORAD_CAT_ID":68230,"ELEMENT_SET_NO":999,"REV_AT_EPOCH":557,"BSTAR":-0.031329061,"MEAN_MOTION_DOT":-0.01874436,"MEAN_MOTION_DDOT":0},{"OBJECT_NAME":"STARLINK-37104","OBJECT_ID":"2026-053AA","EPOCH":"2026-04-13T06:00:02.000160","MEAN_MOTION":15.55229989,"ECCENTRICITY":0.00020854,"INCLINATION":97.2857,"RA_OF_ASC_NODE":339.2565,"ARG_OF_PERICENTER":109.9007,"MEAN_ANOMALY":167.3086,"EPHEMERIS_TYPE":0,"CLASSIFICATION_TYPE":"U","NORAD_CAT_ID":68231,"ELEMENT_SET_NO":999,"REV_AT_EPOCH":557,"BSTAR":-0.031165313,"MEAN_MOTION_DOT":-0.01863549,"MEAN_MOTION_DDOT":0},{"OBJECT_NAME":"STARLINK-37027","OBJECT_ID":"2026-054A","EPOCH":"2026-04-13T06:18:29.680992","MEAN_MOTION":15.75234056,"ECCENTRICITY":8.497e-5,"INCLINATION":53.1592,"RA_OF_ASC_NODE":140.0256,"ARG_OF_PERICENTER":112.1154,"MEAN_ANOMALY":247.9956,"EPHEMERIS_TYPE":0,"CLASSIFICATION_TYPE":"U","NORAD_CAT_ID":68232,"ELEMENT_SET_NO":999,"REV_AT_EPOCH":423,"BSTAR":0.0014985562,"MEAN_MOTION_DOT":0.00235532,"MEAN_MOTION_DDOT":0},{"OBJECT_NAME":"STARLINK-37132","OBJECT_ID":"2026-054B","EPOCH":"2026-04-11T15:05:26.284416","MEAN_MOTION":15.80829857,"ECCENTRICITY":0.00042903,"INCLINATION":53.1568,"RA_OF_ASC_NODE":147.5905,"ARG_OF_PERICENTER":30.1594,"MEAN_ANOMALY":329.9675,"EPHEMERIS_TYPE":0,"CLASSIFICATION_TYPE":"U","NORAD_CAT_ID":68233,"ELEMENT_SET_NO":999,"REV_AT_EPOCH":398,"BSTAR":0.0011980251,"MEAN_MOTION_DOT":0.00242096,"MEAN_MOTION_DDOT":0},{"OBJECT_NAME":"STARLINK-37101","OBJECT_ID":"2026-054C","EPOCH":"2026-04-13T06:05:53.526336","MEAN_MOTION":15.75267864,"ECCENTRICITY":9.287e-5,"INCLINATION":53.1571,"RA_OF_ASC_NODE":139.9653,"ARG_OF_PERICENTER":53.6799,"MEAN_ANOMALY":306.4307,"EPHEMERIS_TYPE":0,"CLASSIFICATION_TYPE":"U","NORAD_CAT_ID":68234,"ELEMENT_SET_NO":999,"REV_AT_EPOCH":423,"BSTAR":0.00081121667,"MEAN_MOTION_DOT":0.00125732,"MEAN_MOTION_DDOT":0},{"OBJECT_NAME":"STARLINK-36963","OBJECT_ID":"2026-054D","EPOCH":"2026-04-11T10:02:55.654080","MEAN_MOTION":15.75312121,"ECCENTRICITY":0.00014555,"INCLINATION":53.1587,"RA_OF_ASC_NODE":149.1421,"ARG_OF_PERICENTER":32.4199,"MEAN_ANOMALY":327.691,"EPHEMERIS_TYPE":0,"CLASSIFICATION_TYPE":"U","NORAD_CAT_ID":68235,"ELEMENT_SET_NO":999,"REV_AT_EPOCH":394,"BSTAR":0.0016478389,"MEAN_MOTION_DOT":0.00260725,"MEAN_MOTION_DDOT":0},{"OBJECT_NAME":"STARLINK-37127","OBJECT_ID":"2026-054E","EPOCH":"2026-04-13T06:25:30.185472","MEAN_MOTION":15.75325174,"ECCENTRICITY":0.00012073,"INCLINATION":53.1589,"RA_OF_ASC_NODE":140.0567,"ARG_OF_PERICENTER":130.3701,"MEAN_ANOMALY":229.7425,"EPHEMERIS_TYPE":0,"CLASSIFICATION_TYPE":"U","NORAD_CAT_ID":68236,"ELEMENT_SET_NO":999,"REV_AT_EPOCH":423,"BSTAR":0.0014154097,"MEAN_MOTION_DOT":0.00222978,"MEAN_MOTION_DDOT":0},{"OBJECT_NAME":"STARLINK-37095","OBJECT_ID":"2026-054F","EPOCH":"2026-04-13T06:18:58.020192","MEAN_MOTION":15.75225013,"ECCENTRICITY":0.00011422,"INCLINATION":53.1588,"RA_OF_ASC_NODE":140.0274,"ARG_OF_PERICENTER":52.5815,"MEAN_ANOMALY":307.531,"EPHEMERIS_TYPE":0,"CLASSIFICATION_TYPE":"U","NORAD_CAT_ID":68237,"ELEMENT_SET_NO":999,"REV_AT_EPOCH":423,"BSTAR":-3.1383117e-5,"MEAN_MOTION_DOT":-5.444e-5,"MEAN_MOTION_DDOT":0},{"OBJECT_NAME":"STARLINK-37097","OBJECT_ID":"2026-054G","EPOCH":"2026-04-12T12:41:13.956000","MEAN_MOTION":15.75268483,"ECCENTRICITY":0.00016091,"INCLINATION":53.1597,"RA_OF_ASC_NODE":143.2509,"ARG_OF_PERICENTER":55.3052,"MEAN_ANOMALY":304.8119,"EPHEMERIS_TYPE":0,"CLASSIFICATION_TYPE":"U","NORAD_CAT_ID":68238,"ELEMENT_SET_NO":999,"REV_AT_EPOCH":412,"BSTAR":0.0012437878,"MEAN_MOTION_DOT":0.00194721,"MEAN_MOTION_DDOT":0},{"OBJECT_NAME":"STARLINK-37096","OBJECT_ID":"2026-054H","EPOCH":"2026-04-13T07:10:38.667360","MEAN_MOTION":15.75263489,"ECCENTRICITY":0.0001169,"INCLINATION":53.1588,"RA_OF_ASC_NODE":139.5282,"ARG_OF_PERICENTER":62.1597,"MEAN_ANOMALY":297.9541,"EPHEMERIS_TYPE":0,"CLASSIFICATION_TYPE":"U","NORAD_CAT_ID":68239,"ELEMENT_SET_NO":999,"REV_AT_EPOCH":424,"BSTAR":0.0013554906,"MEAN_MOTION_DOT":0.00212675,"MEAN_MOTION_DDOT":0},{"OBJECT_NAME":"STARLINK-37092","OBJECT_ID":"2026-054J","EPOCH":"2026-04-12T00:00:02.000160","MEAN_MOTION":15.75239453,"ECCENTRICITY":0.00010532,"INCLINATION":53.1572,"RA_OF_ASC_NODE":146.0872,"ARG_OF_PERICENTER":93.7316,"MEAN_ANOMALY":44.0163,"EPHEMERIS_TYPE":0,"CLASSIFICATION_TYPE":"U","NORAD_CAT_ID":68240,"ELEMENT_SET_NO":999,"REV_AT_EPOCH":526,"BSTAR":-0.00021542332,"MEAN_MOTION_DOT":-0.0003353,"MEAN_MOTION_DDOT":0},{"OBJECT_NAME":"STARLINK-37094","OBJECT_ID":"2026-054K","EPOCH":"2026-04-13T06:00:02.000160","MEAN_MOTION":15.75548439,"ECCENTRICITY":0.00014166,"INCLINATION":53.1594,"RA_OF_ASC_NODE":139.5003,"ARG_OF_PERICENTER":90.2981,"MEAN_ANOMALY":122.1322,"EPHEMERIS_TYPE":0,"CLASSIFICATION_TYPE":"U","NORAD_CAT_ID":68241,"ELEMENT_SET_NO":999,"REV_AT_EPOCH":545,"BSTAR":-0.0066094844,"MEAN_MOTION_DOT":-0.00922168,"MEAN_MOTION_DDOT":0},{"OBJECT_NAME":"STARLINK-36356","OBJECT_ID":"2026-054L","EPOCH":"2026-04-12T19:19:22.215936","MEAN_MOTION":15.75304671,"ECCENTRICITY":0.00036199,"INCLINATION":53.157,"RA_OF_ASC_NODE":142.1386,"ARG_OF_PERICENTER":66.6541,"MEAN_ANOMALY":293.486,"EPHEMERIS_TYPE":0,"CLASSIFICATION_TYPE":"U","NORAD_CAT_ID":68242,"ELEMENT_SET_NO":999,"REV_AT_EPOCH":416,"BSTAR":0.0015158687,"MEAN_MOTION_DOT":0.00239136,"MEAN_MOTION_DDOT":0},{"OBJECT_NAME":"STARLINK-36345","OBJECT_ID":"2026-054M","EPOCH":"2026-04-13T06:12:28.999008","MEAN_MOTION":15.74895407,"ECCENTRICITY":0.00057202,"INCLINATION":53.1588,"RA_OF_ASC_NODE":139.996,"ARG_OF_PERICENTER":120.8577,"MEAN_ANOMALY":239.3007,"EPHEMERIS_TYPE":0,"CLASSIFICATION_TYPE":"U","NORAD_CAT_ID":68243,"ELEMENT_SET_NO":999,"REV_AT_EPOCH":423,"BSTAR":0.010662518,"MEAN_MOTION_DOT":0.01842086,"MEAN_MOTION_DDOT":0}]
