STARLINK-37050          
1 68228U 26053X   26103.25002315 -.01871036  00000+0 -30301-1 0  9997
2 68228  97.2851 339.2608 0002000 103.5641 183.8179 15.56111231  5551
STARLINK-37081          
1 68229U 26053Y   26103.20317597  .00199168  00000+0  13055-2 0  9998
2 68229  97.2848 339.1932 0002573  68.7577 291.3963 15.75185260  5507
STARLINK-37100          
1 68230U 26053Z   26103.25002315 -.01874436  00000+0 -31329-1 0  9998
2 68230  97.2853 339.2548 0002213  98.5612 174.9662 15.55264812  5579
STARLINK-37104          
1 68231U 26053AA  26103.25002315 -.01863549  00000+0 -31165-1 0  9990
2 68231  97.2857 339.2565 0002085 109.9007 167.3086 15.55229989  5577
STARLINK-37027          
1 68232U 26054A   26103.26284353  .00235532  00000+0  14986-2 0  9992
2 68232  53.1592 140.0256 0000849 112.1154 247.9956 15.75234056  4231
STARLINK-37132          
1 68233U 26054B   26101.62877644  .00242096  00000+0  11980-2 0  9996
2 68233  53.1568 147.5905 0004290  30.1594 329.9675 15.80829857  3984
STARLINK-37101          
1 68234U 26054C   26103.25409174  .00125732  00000+0  81122-3 0  9990
2 68234  53.1571 139.9653 0000928  53.6799 306.4307 15.75267864  4234
STARLINK-36963          
1 68235U 26054D   26101.41869970  .00260725  00000+0  16478-2 0  9994
2 68235  53.1587 149.1421 0001455  32.4199 327.6910 15.75312121  3942
STARLINK-37127          
1 68236U 26054E   26103.26771048  .00222978  00000+0  14154-2 0  9995
2 68236  53.1589 140.0567 0001207 130.3701 229.7425 15.75325174  4236
STARLINK-37095          
1 68237U 26054F   26103.26317153 -.00005444  00000+0 -31383-4 0  9993
2 68237  53.1588 140.0274 0001142  52.5815 307.5310 15.75225013  4239
STARLINK-37097          
1 68238U 26054G   26102.52863375  .00194721  00000+0  12438-2 0  9997
2 68238  53.1597 143.2509 0001609  55.3052 304.8119 15.75268483  4121
STARLINK-37096          
1 68239U 26054H   26103.29905865  .00212675  00000+0  13555-2 0  9994
2 68239  53.1588 139.5282 0001169  62.1597 297.9541 15.75263489  4244
STARLINK-37092          
1 68240U 26054J   26102.00002315 -.00033530  00000+0 -21542-3 0  9991
2 68240  53.1572 146.0872 0001053  93.7316  44.0163 15.75239453  5266
STARLINK-37094          
1 68241U 26054K   26103.25002315 -.00922168  00000+0 -66095-2 0  9995
2 68241  53.1594 139.5003 0001416  90.2981 122.1322 15.75548439  5450
STARLINK-36356          
1 68242U 26054L   26102.80511824  .00239136  00000+0  15159-2 0  9995
2 68242  53.1570 142.1386 0003619  66.6541 293.4860 15.75304671  4169
STARLINK-36345          
1 68243U 26054M   26103.25866897  .01842086  00000+0  10663-1 0  9998
2 68243  53.1588 139.9960 0005720 120.8577 239.3007 15.74895407  4239
